start=new Date('2021-08-31T00:00:00.000Z').valueOf();
sats=[{"CENTER_NAME":"EARTH","SITE":"AFETR","TLE_LINE1":"1 47662U 21012AU  21242.53654903  .00000249  00000-0  35576-4 0  9992","EPOCH":"2021-08-30T12:52:37.836192","CLASSIFICATION_TYPE":"U","OBJECT_TYPE":"PAYLOAD","REF_FRAME":"TEME","OBJECT_ID":"2021-012AU","BSTAR":"0.00003557600000","ELEMENT_SET_NO":"999","FILE":"3105635","LAUNCH_DATE":"2021-02-16","MEAN_ELEMENT_THEORY":"SGP4","ECCENTRICITY":"0.00005010","NORAD_CAT_ID":"47662","OBJECT_NAME":"STARLINK-2052","PERIOD":"95.593","ARG_OF_PERICENTER":"74.5873","MEAN_MOTION":"15.06392138","INCLINATION":"53.0557","SEMIMAJOR_AXIS":"6925.373","RA_OF_ASC_NODE":"268.4175","PERIAPSIS":"546.891","DECAY_DATE":null,"TIME_SYSTEM":"UTC","EPHEMERIS_TYPE":"0","RCS_SIZE":"LARGE","MEAN_MOTION_DDOT":"0.0000000000000","GP_ID":"183731360","REV_AT_EPOCH":"3125","MEAN_ANOMALY":"285.5171","MEAN_MOTION_DOT":"0.00000249","APOAPSIS":"547.585","COUNTRY_CODE":"US","TLE_LINE2":"2 47662  53.0557 268.4175 0000501  74.5873 285.5171 15.06392138 31253"},{"BSTAR":"-0.00159420000000","FILE":"3105635","MEAN_ELEMENT_THEORY":"SGP4","LAUNCH_DATE":"2021-02-16","ELEMENT_SET_NO":"999","ECCENTRICITY":"0.00021600","NORAD_CAT_ID":"47663","ARG_OF_PERICENTER":"36.7107","PERIOD":"91.537","MEAN_MOTION":"15.73128878","OBJECT_NAME":"STARLINK-2053","TLE_LINE1":"1 47663U 21012AV  21242.17110371 -.00218066  00000-0 -15942-2 0  9992","SITE":"AFETR","CENTER_NAME":"EARTH","EPOCH":"2021-08-30T04:06:23.360544","OBJECT_TYPE":"PAYLOAD","REF_FRAME":"TEME","CLASSIFICATION_TYPE":"U","OBJECT_ID":"2021-012AV","GP_ID":"183732611","REV_AT_EPOCH":"3200","MEAN_ANOMALY":"323.4058","APOAPSIS":"351.416","MEAN_MOTION_DOT":"-0.00218066","COUNTRY_CODE":"US","TLE_LINE2":"2 47663  53.0433 212.1018 0002160  36.7107 323.4058 15.73128878 32004","INCLINATION":"53.0433","SEMIMAJOR_AXIS":"6728.098","PERIAPSIS":"348.510","RA_OF_ASC_NODE":"212.1018","DECAY_DATE":null,"TIME_SYSTEM":"UTC","EPHEMERIS_TYPE":"0","MEAN_MOTION_DDOT":"0.0000000000000","RCS_SIZE":"LARGE"},{"EPOCH":"2021-08-30T11:18:26.949600","CENTER_NAME":"EARTH","SITE":"AFETR","TLE_LINE1":"1 47664U 21012AW  21242.47114525 -.00000142  00000-0  93586-5 0  9997","REF_FRAME":"TEME","OBJECT_TYPE":"PAYLOAD","CLASSIFICATION_TYPE":"U","OBJECT_ID":"2021-012AW","BSTAR":"0.00000935860000","ECCENTRICITY":"0.00003280","ELEMENT_SET_NO":"999","LAUNCH_DATE":"2021-02-16","FILE":"3105635","MEAN_ELEMENT_THEORY":"SGP4","OBJECT_NAME":"STARLINK-2054","MEAN_MOTION":"15.06394510","PERIOD":"95.592","ARG_OF_PERICENTER":"65.1842","NORAD_CAT_ID":"47664","SEMIMAJOR_AXIS":"6925.365","INCLINATION":"53.0549","DECAY_DATE":null,"RA_OF_ASC_NODE":"268.7182","PERIAPSIS":"547.003","TIME_SYSTEM":"UTC","RCS_SIZE":"LARGE","MEAN_MOTION_DDOT":"0.0000000000000","EPHEMERIS_TYPE":"0","REV_AT_EPOCH":"3124","GP_ID":"183732358","APOAPSIS":"547.458","MEAN_MOTION_DOT":"-0.00000142","MEAN_ANOMALY":"294.9181","COUNTRY_CODE":"US","TLE_LINE2":"2 47664  53.0549 268.7182 0000328  65.1842 294.9181 15.06394510 31246"},{"MEAN_ANOMALY":"220.3184","MEAN_MOTION_DOT":"0.00000568","APOAPSIS":"552.263","GP_ID":"183731610","REV_AT_EPOCH":"3129","TLE_LINE2":"2 47665  53.0475 264.1465 0007250 139.8342 220.3184 15.06390720 31294","COUNTRY_CODE":"US","RA_OF_ASC_NODE":"264.1465","PERIAPSIS":"542.221","DECAY_DATE":null,"INCLINATION":"53.0475","SEMIMAJOR_AXIS":"6925.377","EPHEMERIS_TYPE":"0","RCS_SIZE":"LARGE","MEAN_MOTION_DDOT":"0.0000000000000","TIME_SYSTEM":"UTC","BSTAR":"0.00005720900000","NORAD_CAT_ID":"47665","OBJECT_NAME":"STARLINK-2056","MEAN_MOTION":"15.06390720","PERIOD":"95.593","ARG_OF_PERICENTER":"139.8342","ELEMENT_SET_NO":"999","FILE":"3105635","MEAN_ELEMENT_THEORY":"SGP4","LAUNCH_DATE":"2021-02-16","ECCENTRICITY":"0.00072500","REF_FRAME":"TEME","OBJECT_TYPE":"PAYLOAD","CLASSIFICATION_TYPE":"U","CENTER_NAME":"EARTH","SITE":"AFETR","TLE_LINE1":"1 47665U 21012AX  21242.38036103  .00000568  00000-0  57209-4 0  9995","EPOCH":"2021-08-30T09:07:43.192992","OBJECT_ID":"2021-012AX"},{"ELEMENT_SET_NO":"999","FILE":"3105635","LAUNCH_DATE":"2021-02-16","MEAN_ELEMENT_THEORY":"SGP4","ECCENTRICITY":"0.00005080","NORAD_CAT_ID":"47666","OBJECT_NAME":"STARLINK-2057","ARG_OF_PERICENTER":"199.8419","PERIOD":"95.592","MEAN_MOTION":"15.06396163","BSTAR":"0.00000268330000","OBJECT_ID":"2021-012AY","CENTER_NAME":"EARTH","SITE":"AFETR","TLE_LINE1":"1 47666U 21012AY  21242.34718349 -.00000241  00000-0  26833-5 0  9990","EPOCH":"2021-08-30T08:19:56.653536","REF_FRAME":"TEME","OBJECT_TYPE":"PAYLOAD","CLASSIFICATION_TYPE":"U","COUNTRY_CODE":"US","TLE_LINE2":"2 47666  53.0546 264.2621 0000508 199.8419 160.2550 15.06396163 31295","GP_ID":"183731860","REV_AT_EPOCH":"3129","MEAN_ANOMALY":"160.2550","APOAPSIS":"547.577","MEAN_MOTION_DOT":"-0.00000241","TIME_SYSTEM":"UTC","EPHEMERIS_TYPE":"0","RCS_SIZE":"LARGE","MEAN_MOTION_DDOT":"0.0000000000000","INCLINATION":"53.0546","SEMIMAJOR_AXIS":"6925.360","RA_OF_ASC_NODE":"264.2621","PERIAPSIS":"546.874","DECAY_DATE":null},{"ECCENTRICITY":"0.00008210","ELEMENT_SET_NO":"999","FILE":"3105635","MEAN_ELEMENT_THEORY":"SGP4","LAUNCH_DATE":"2021-02-16","OBJECT_NAME":"STARLINK-2058","PERIOD":"95.592","ARG_OF_PERICENTER":"103.0600","MEAN_MOTION":"15.06397680","NORAD_CAT_ID":"47667","BSTAR":"0.00020617000000","OBJECT_ID":"2021-012AZ","EPOCH":"2021-08-30T12:03:34.108704","CENTER_NAME":"EARTH","TLE_LINE1":"1 47667U 21012AZ  21242.50247811  .00002791  00000-0  20617-3 0  9993","SITE":"AFETR","OBJECT_TYPE":"PAYLOAD","CLASSIFICATION_TYPE":"U","REF_FRAME":"TEME","COUNTRY_CODE":"US","TLE_LINE2":"2 47667  53.0556 288.5714 0000821 103.0600 257.0481 15.06397680 30940","REV_AT_EPOCH":"3094","GP_ID":"183732112","MEAN_MOTION_DOT":"0.00002791","APOAPSIS":"547.789","MEAN_ANOMALY":"257.0481","TIME_SYSTEM":"UTC","RCS_SIZE":"LARGE","MEAN_MOTION_DDOT":"0.0000000000000","EPHEMERIS_TYPE":"0","SEMIMAJOR_AXIS":"6925.356","INCLINATION":"53.0556","DECAY_DATE":null,"RA_OF_ASC_NODE":"288.5714","PERIAPSIS":"546.652"},{"GP_ID":"183732858","REV_AT_EPOCH":"3122","MEAN_ANOMALY":"300.0922","APOAPSIS":"547.625","MEAN_MOTION_DOT":"-0.00000446","COUNTRY_CODE":"US","TLE_LINE2":"2 47668  53.0550 269.2893 0000597  60.0126 300.0922 15.06400638 31223","INCLINATION":"53.0550","SEMIMAJOR_AXIS":"6925.347","RA_OF_ASC_NODE":"269.2893","PERIAPSIS":"546.798","DECAY_DATE":null,"TIME_SYSTEM":"UTC","EPHEMERIS_TYPE":"0","RCS_SIZE":"LARGE","MEAN_MOTION_DDOT":"0.0000000000000","BSTAR":"-0.00001109300000","ELEMENT_SET_NO":"999","MEAN_ELEMENT_THEORY":"SGP4","FILE":"3105635","LAUNCH_DATE":"2021-02-16","ECCENTRICITY":"0.00005970","NORAD_CAT_ID":"47668","OBJECT_NAME":"STARLINK-2059","MEAN_MOTION":"15.06400638","PERIOD":"95.592","ARG_OF_PERICENTER":"60.0126","CENTER_NAME":"EARTH","SITE":"AFETR","TLE_LINE1":"1 47668U 21012BA  21242.34581878 -.00000446  00000-0 -11093-4 0  9996","EPOCH":"2021-08-30T08:17:58.742592","OBJECT_TYPE":"PAYLOAD","CLASSIFICATION_TYPE":"U","REF_FRAME":"TEME","OBJECT_ID":"2021-012BA"},{"OBJECT_TYPE":"PAYLOAD","REF_FRAME":"TEME","CLASSIFICATION_TYPE":"U","EPOCH":"2021-08-30T20:52:43.112352","CENTER_NAME":"EARTH","SITE":"AFETR","TLE_LINE1":"1 47669U 21012BB  21242.86994343  .00026673  00000-0  19454-3 0  9995","OBJECT_ID":"2021-012BB","BSTAR":"0.00019454000000","OBJECT_NAME":"STARLINK-2060","ARG_OF_PERICENTER":"13.6783","PERIOD":"91.538","MEAN_MOTION":"15.73108976","NORAD_CAT_ID":"47669","ECCENTRICITY":"0.00035860","ELEMENT_SET_NO":"999","MEAN_ELEMENT_THEORY":"SGP4","FILE":"3105706","LAUNCH_DATE":"2021-02-16","DECAY_DATE":null,"RA_OF_ASC_NODE":"208.6277","PERIAPSIS":"347.607","SEMIMAJOR_AXIS":"6728.155","INCLINATION":"53.0430","RCS_SIZE":"MEDIUM","MEAN_MOTION_DDOT":"0.0000000000000","EPHEMERIS_TYPE":"0","TIME_SYSTEM":"UTC","APOAPSIS":"352.432","MEAN_MOTION_DOT":"0.00026673","MEAN_ANOMALY":"346.4331","REV_AT_EPOCH":"3159","GP_ID":"183734781","TLE_LINE2":"2 47669  53.0430 208.6277 0003586  13.6783 346.4331 15.73108976 31590","COUNTRY_CODE":"US"},{"OBJECT_ID":"2021-012BC","CENTER_NAME":"EARTH","SITE":"AFETR","TLE_LINE1":"1 47670U 21012BC  21242.36057290 -.00000746  00000-0 -30969-4 0  9993","EPOCH":"2021-08-30T08:39:13.498560","CLASSIFICATION_TYPE":"U","OBJECT_TYPE":"PAYLOAD","REF_FRAME":"TEME","ELEMENT_SET_NO":"999","FILE":"3105635","LAUNCH_DATE":"2021-02-16","MEAN_ELEMENT_THEORY":"SGP4","ECCENTRICITY":"0.00082960","NORAD_CAT_ID":"47670","OBJECT_NAME":"STARLINK-2062","PERIOD":"95.593","ARG_OF_PERICENTER":"167.3221","MEAN_MOTION":"15.06391157","BSTAR":"-0.00003096900000","TIME_SYSTEM":"UTC","EPHEMERIS_TYPE":"0","RCS_SIZE":"LARGE","MEAN_MOTION_DDOT":"0.0000000000000","INCLINATION":"53.0522","SEMIMAJOR_AXIS":"6925.376","RA_OF_ASC_NODE":"269.2113","PERIAPSIS":"541.495","DECAY_DATE":null,"COUNTRY_CODE":"US","TLE_LINE2":"2 47670  53.0522 269.2113 0008296 167.3221 192.7978 15.06391157 31212","GP_ID":"183731361","REV_AT_EPOCH":"3121","MEAN_ANOMALY":"192.7978","APOAPSIS":"552.986","MEAN_MOTION_DOT":"-0.00000746"},{"BSTAR":"0.00008148700000","ECCENTRICITY":"0.00005600","FILE":"3105635","LAUNCH_DATE":"2021-02-16","MEAN_ELEMENT_THEORY":"SGP4","ELEMENT_SET_NO":"999","MEAN_MOTION":"15.06398775","PERIOD":"95.592","ARG_OF_PERICENTER":"71.5757","OBJECT_NAME":"STARLINK-2064","NORAD_CAT_ID":"47671","EPOCH":"2021-08-30T11:23:44.684736","SITE":"AFETR","TLE_LINE1":"1 47671U 21012BD  21242.47482274  .00000933  00000-0  81487-4 0  9997","CENTER_NAME":"EARTH","OBJECT_TYPE":"PAYLOAD","CLASSIFICATION_TYPE":"U","REF_FRAME":"TEME","OBJECT_ID":"2021-012BD","REV_AT_EPOCH":"3124","GP_ID":"183732612","MEAN_MOTION_DOT":"0.00000933","APOAPSIS":"547.605","MEAN_ANOMALY":"288.5292","COUNTRY_CODE":"US","TLE_LINE2":"2 47671  53.0542 268.7053 0000560  71.5757 288.5292 15.06398775 31247","SEMIMAJOR_AXIS":"6925.352","INCLINATION":"53.0542","DECAY_DATE":null,"PERIAPSIS":"546.829","RA_OF_ASC_NODE":"268.7053","TIME_SYSTEM":"UTC","MEAN_MOTION_DDOT":"0.0000000000000","RCS_SIZE":"LARGE","EPHEMERIS_TYPE":"0"}];
